STARLINK-2063           
1 48553U 21041A   24111.86031298  .00013769  00000+0  94169-3 0  9996
2 48553  53.0545 339.4007 0001371 117.3994 242.7135 15.06389453161984
